STARLINK-32321          
1 61065U 24164R   26025.04478142 -.00002407  00000+0 -69098-4 0  9990
2 61065  53.1601 293.9670 0002646 103.9493 256.1802 15.30206293 76793
STARLINK-32381          
1 61066U 24164S   26025.05534347 -.00001113  00000+0 -25473-4 0  9994
2 61066  53.1616 294.0277 0001168 110.5114 249.6012 15.30192826 76793
STARLINK-32385          
1 61068U 24164U   26024.38845955  .00000156  00000+0  17377-4 0  9999
2 61068  53.1615 296.9816 0000534 145.1846 214.9190 15.30176073 76693
STARLINK-32380          
1 61069U 24164V   26024.71187254 -.00002161  00000+0 -60851-4 0  9993
2 61069  53.1578 295.4433 0001053  81.1391 278.9729 15.30197280 76749
STARLINK-32375          
1 61070U 24164W   26023.08850514  .00010599  00000+0  36934-3 0  9996
2 61070  53.1586 303.0854 0001265  72.1559 287.9580 15.30212684 76497
STARLINK-11209 [DTC]    
1 61200U 24171A   26024.99658713  .00000119  00000+0  58387-5 0  9992
2 61200  53.1585  31.8529 0001023  79.6545 280.4588 15.69699495 78449
STARLINK-11257 [DTC]    
1 61201U 24171B   26024.73700791 -.00002477  00000+0 -15599-4 0  9997
2 61201  53.1596  33.0696 0001181  76.8077 283.3072 15.69703292 77490
STARLINK-11309 [DTC]    
1 61202U 24171C   26024.73210906 -.00006233  00000+0 -46671-4 0  9991
2 61202  53.1588  33.0364 0000896 116.8742 243.2368 15.69688438 77497
STARLINK-11292 [DTC]    
1 61203U 24171D   26024.72718763 -.00003047  00000+0 -20289-4 0  9992
2 61203  53.1602  32.9992 0001098  94.3168 265.7975 15.69719331 77497
STARLINK-11302 [DTC]    
1 61204U 24171E   26025.04063091 -.00003762  00000+0 -26194-4 0  9991
2 61204  53.1608  31.4022 0001187  84.4863 275.6290 15.69717034 77547
STARLINK-11277 [DTC]    
1 61205U 24171F   26025.03081855 -.00000882  00000+0 -24167-5 0  9998
2 61205  53.1590  31.3326 0001490  99.5647 260.5539 15.69708650 77541
STARLINK-11279 [DTC]    
1 61206U 24171G   26025.15324389 -.00000137  00000+0  37347-5 0  9990
2 61206  53.1589  30.6750 0001444 101.8338 258.2842 15.69715464 77560
STARLINK-11091 [DTC]    
1 61207U 24171H   26025.03572203 -.00004354  00000+0 -31074-4 0  9994
2 61207  53.1596  31.3643 0001294  92.4648 267.6518 15.69724434 77549
STARLINK-11291 [DTC]    
1 61208U 24171J   26025.02101043 -.00001503  00000+0 -75462-5 0  9997
2 61208  53.1596  31.2699 0001365  76.4812 283.6358 15.69700866 77547
STARLINK-11304 [DTC]    
1 61209U 24171K   26025.01609987 -.00005204  00000+0 -38073-4 0  9995
2 61209  53.1599  31.2369 0002526 110.7573 249.3716 15.69725108 78455
STARLINK-11307 [DTC]    
1 61210U 24171L   26024.31093352 -.00000394  00000+0  16057-5 0  9995
2 61210  53.1592  35.3878 0000977  94.0508 266.0622 15.69714820 77427
STARLINK-11298 [DTC]    
1 61211U 24171M   26024.75171648 -.00002361  00000+0 -14625-4 0  9994
2 61211  53.1601  33.1605 0001396  74.0379 286.0792 15.69711737 77494
STARLINK-11310 [DTC]    
1 61212U 24171N   26025.00148986 -.00000663  00000+0 -61276-6 0  9992
2 61212  53.1582  31.8728 0001223  91.2126 268.9032 15.69699363 77535
STARLINK-32386          
1 61213U 24171P   26024.66927920  .00004392  00000+0  16038-3 0  9991
2 61213  53.1584 166.5674 0001195  70.1212 289.9918 15.30189353 75630
STARLINK-32392          
1 61214U 24171Q   26025.07910253 -.00003841  00000+0 -11762-3 0  9998
2 61214  53.1553 164.8570 0000421  20.4703 339.6315 15.30203774 75691
STARLINK-32436          
1 61215U 24171R   26024.86628037  .00021272  00000+0  72775-3 0  9998
2 61215  53.1555 165.6638 0001110  71.7227 288.3895 15.30223864 75666
STARLINK-32425          
1 61216U 24171S   26024.77572640 -.00014182  00000+0 -46691-3 0  9999
2 61216  53.1566 166.5183 0000379  52.9956 307.1079 15.30248898 75646
STARLINK-32342          
1 61217U 24171T   26024.76521601  .00000194  00000+0  18731-4 0  9991
2 61217  53.1612 166.4538 0003896  83.2665 276.8779 15.30191266 76559
STARLINK-32423          
1 61218U 24171U   26024.76731800 -.00001160  00000+0 -27065-4 0  9992
2 61218  53.1593 166.4684 0001027  90.0481 270.0637 15.30184383 76557
STARLINK-32248          
1 61219U 24171V   26024.65461857  .00007469  00000+0  26384-3 0  9991
2 61219  53.1599 167.1808 0001435  82.0250 278.0914 15.30224252 76532
STARLINK-11300 [DTC]    
1 61243U 24175A   26023.97783664 -.00002440  00000+0 -15274-4 0  9992
2 61243  53.1605 276.7041 0001052 103.6369 256.4766 15.69734885 76343
STARLINK-11276 [DTC]    
1 61244U 24175B   26024.41863228 -.00001536  00000+0 -78326-5 0  9991
2 61244  53.1587 274.4744 0000430  98.8711 261.2356 15.69704627 76411
STARLINK-11280 [DTC]    
1 61245U 24175C   26023.13543029  .00008179  00000+0  72352-4 0  9994
2 61245  53.1598 280.6979 0002253  39.1736 320.9445 15.69695860 76211
STARLINK-11308 [DTC]    
1 61246U 24175D   26023.71335535  .00002797  00000+0  27941-4 0  9994
2 61246  53.1575 277.8931 0001501  77.6081 282.5105 15.69710674 76305
STARLINK-11305 [DTC]    
1 61247U 24175E   26024.40391910  .00001867  00000+0  20266-4 0  9991
2 61247  53.1596 274.3756 0000375 101.4715 258.6345 15.69694359 76417
STARLINK-11317 [DTC]    
1 61248U 24175F   26024.65368045 -.00003474  00000+0 -23814-4 0  9992
2 61248  53.1581 273.0875 0001561  78.7676 281.3518 15.69712094 76456
STARLINK-11293 [DTC]    
1 61249U 24175G   26024.71244364 -.00007035  00000+0 -53193-4 0  9997
2 61249  53.1591 272.7409 0001163  76.5714 283.5434 15.69737361 76460
STARLINK-11319 [DTC]    
1 61251U 24175J   26024.70274294 -.00000721  00000+0 -10954-5 0  9998
2 61251  53.1586 273.4096 0000741 107.5781 252.5318 15.69703174 76458
STARLINK-11318 [DTC]    
1 61252U 24175K   26024.69783118 -.00007373  00000+0 -55986-4 0  9990
2 61252  53.1591 273.3759 0002220 105.3723 254.7540 15.69728107 77620
STARLINK-11311 [DTC]    
1 61253U 24175L   26024.69293841 -.00001547  00000+0 -79145-5 0  9991
2 61253  53.1579 273.3423 0001427 102.2888 257.8290 15.69697212 77663
STARLINK-11306 [DTC]    
1 61254U 24175M   26024.68802369 -.00001226  00000+0 -52689-5 0  9990
2 61254  53.1580 273.3100 0000797  98.3700 261.7408 15.69701236 77651
STARLINK-11313 [DTC]    
1 61255U 24175N   26024.68311884 -.00000988  00000+0 -32994-5 0  9999
2 61255  53.1595 273.2779 0001221  84.7474 275.3683 15.69702658 76451
STARLINK-32431          
1 61256U 24175P   26024.66672454 -.00012519  00000+0 -41138-3 0  9992
2 61256  53.1591  38.5249 0001277 104.3696 249.0873 15.30190010  5876
STARLINK-32432          
1 61257U 24175Q   26024.99766742 -.00007511  00000+0 -24190-3 0  9998
2 61257  53.1598  37.0234 0001631  79.8438 280.2747 15.30173842 74761
STARLINK-32382          
1 61258U 24175R   26024.73957705 -.00002704  00000+0 -79223-4 0  9999
2 61258  53.1596  38.2548 0001084 107.0800 253.0320 15.30194871 74726
STARLINK-32435          
1 61259U 24175S   26024.35508426 -.00001093  00000+0 -24775-4 0  9992
2 61259  53.1610  40.1228 0001376  80.1283 279.9874 15.30199440 74662
STARLINK-32474          
1 61260U 24175T   26025.05349199 -.00005287  00000+0 -16643-3 0  9995
2 61260  53.1617  36.6573 0001209  93.3777 266.7362 15.30215027 74771
STARLINK-32447          
1 61261U 24175U   26025.05666684 -.00005400  00000+0 -17034-3 0  9999
2 61261  53.1613  36.6763 0000591  89.3782 270.7287 15.30197143 74772
STARLINK-32446          
1 61262U 24175V   26024.35190870 -.00019684  00000+0 -65401-3 0  9991
2 61262  53.1616  40.0997 0001436  77.3497 282.7664 15.30209226 74669
STARLINK-32174          
1 61509U 24183A   26025.13072021 -.00005884  00000+0 -18673-3 0  9994
2 61509  53.1606 331.9732 0001823  94.6705 265.4504 15.30189664 73163
STARLINK-32139          
1 61510U 24183B   26025.13761118  .00006305  00000+0  22487-3 0  9993
2 61510  53.1597 344.8067 0000971  94.3383 265.7728 15.30190466 72982
STARLINK-32140          
1 61511U 24183C   26025.05541315  .00004418  00000+0  16126-3 0  9996
2 61511  53.1616 345.0036 0001775  82.4020 277.7182 15.30191921 72976
STARLINK-32201          
1 61512U 24183D   26025.12650611  .00004422  00000+0  16133-3 0  9998
2 61512  53.1605 331.9507 0001511  38.8430 321.2680 15.30201745 73166
STARLINK-32030          
1 61513U 24183E   26025.14394560 -.00000235  00000+0  41986-5 0  9994
2 61513  53.1628 344.8456 0001219  67.5955 292.5175 15.30188706 72983
STARLINK-31837          
1 61514U 24183F   26025.13127782 -.00002598  00000+0 -75653-4 0  9996
2 61514  53.1625 344.7513 0001186  94.0808 266.0328 15.30193432 72987
STARLINK-32136          
1 61515U 24183G   26025.08812417 -.00003755  00000+0 -11474-3 0  9993
2 61515  53.1612 345.2074 0001119  75.6058 284.5067 15.30199052 72978
STARLINK-32047          
1 61516U 24183H   26025.12811124 -.00000607  00000+0 -83660-5 0  9994
2 61516  53.1629 344.7345 0001086 115.3366 244.7748 15.30194549 72980
STARLINK-31756          
1 61517U 24183J   26025.16925615 -.00002624  00000+0 -76490-4 0  9993
2 61517  53.1604 344.9433 0001227  92.4323 267.6819 15.30201081 72982
STARLINK-32172          
1 61518U 24183K   26025.05962968 -.00001278  00000+0 -31047-4 0  9997
2 61518  53.1610 345.0108 0001434 103.8731 256.2429 15.30193014 72977
STARLINK-32338          
1 61519U 24183L   26025.11755544  .00001999  00000+0  79623-4 0  9995
2 61519  53.1607 344.6635 0000922 114.3941 245.7156 15.30184371 72982
STARLINK-32306          
1 61520U 24183M   26025.17965050  .00004780  00000+0  17300-3 0  9992
2 61520  53.1610 344.3422 0001073  73.0982 287.0137 15.30277704 72995
STARLINK-32297          
1 61521U 24183N   26025.11124280 -.00005171  00000+0 -16264-3 0  9994
2 61521  53.1617 344.6273 0001273  99.3190 260.7955 15.30187339 72983
STARLINK-32260          
1 61522U 24183P   26025.17337617 -.00002696  00000+0 -78971-4 0  9994
2 61522  53.1604 344.3037 0001052  84.4468 275.6653 15.30191014 72999
STARLINK-32305          
1 61523U 24183Q   26025.14077917 -.00000640  00000+0 -94928-5 0  9994
2 61523  53.1608 344.8156 0001197  80.8400 279.2736 15.30187999 72985
